NORAD_CAT_ID,OBJECT_NAME,OBJECT_TYPE,EPOCH,MEAN_MOTION,ECCENTRICITY,INCLINATION,RA_OF_ASC_NODE,ARG_OF_PERICENTER,MEAN_ANOMALY,BSTAR,MEAN_MOTION_DOT,MEAN_MOTION_DDOT,TLE_LINE0,TLE_LINE1,TLE_LINE2,SEMIMAJOR_AXIS,PERIOD,APOGEE,PERIGEE,DECAYED
54799.0,STARLINK-5421,PAYLOAD,2024-01-23 21:43:50,15.08848565,0.0001524,53.2167,261.7143,81.7948,278.3216,0.00015761,2.222e-05,0.0,0 STARLINK-5421,1 54799U 22175AT  24023.90544319  .00002222  00000-0  15761-3 0  9998,2 54799  53.2167 261.7143 0001524  81.7948 278.3216 15.08848565 63157,6917.854,95.437,540.773,538.665,0.0
54799.0,STARLINK-5421,PAYLOAD,2024-01-23 23:19:13,15.08849721,0.0001476,53.2164,261.4191,83.1857,276.9303,0.00018949,2.73e-05,0.0,0 STARLINK-5421,1 54799U 22175AT  24023.97168227  .00002730  00000-0  18949-3 0  9990,2 54799  53.2164 261.4191 0001476  83.1857 276.9303 15.08849721 61003,6917.851,95.437,540.737,538.695,0.0
54799.0,STARLINK-5421,PAYLOAD,2024-01-24 19:59:14,15.08842349,0.0001452,53.2167,257.551,85.7595,274.3563,6.5809e-05,7.6e-06,0.0,0 STARLINK-5421,1 54799U 22175AT  24024.83280677  .00000760  00000-0  65809-4 0  9999,2 54799  53.2167 257.5510 0001452  85.7595 274.3563 15.08842349 61131,6917.873,95.437,540.743,538.734,0.0
54799.0,STARLINK-5421,PAYLOAD,2024-01-24 21:34:37,15.08842102,0.0001445,53.2166,257.2531,86.0876,274.0281,5.8276e-05,6.4e-06,0.0,0 STARLINK-5421,1 54799U 22175AT  24024.89904654  .00000640  00000-0  58276-4 0  9990,2 54799  53.2166 257.2531 0001445  86.0876 274.0281 15.08842102 63300,6917.874,95.437,540.739,538.739,0.0
54799.0,STARLINK-5421,PAYLOAD,2024-01-24 23:10:00,15.08843128,0.0001494,53.2167,256.9553,80.6469,279.4692,7.7538e-05,9.46e-06,0.0,0 STARLINK-5421,1 54799U 22175AT  24024.96528639  .00000946  00000-0  77538-4 0  9994,2 54799  53.2167 256.9553 0001494  80.6469 279.4692 15.08843128 63318,6917.871,95.437,540.769,538.702,0.0
54799.0,STARLINK-5421,PAYLOAD,2024-01-25 19:50:01,15.08839336,0.0001488,53.2156,253.0938,83.9509,276.1653,-1.4205e-05,-5.14e-06,0.0,0 STARLINK-5421,1 54799U 22175AT  24025.82641070 -.00000514  00000-0 -14205-4 0  9990,2 54799  53.2156 253.0938 0001488  83.9509 276.1653 15.08839336 61286,6917.882,95.438,540.777,538.718,0.0
54799.0,STARLINK-5421,PAYLOAD,2024-01-25 21:25:25,15.08838971,0.0001523,53.2155,252.7977,80.027,280.0894,-8.1083e-06,-4.17e-06,0.0,0 STARLINK-5421,1 54799U 22175AT  24025.89265114 -.00000417  00000-0 -81083-5 0  9999,2 54799  53.2155 252.7977 0001523  80.0270 280.0894 15.08838971 63453,6917.884,95.438,540.802,538.695,0.0
54799.0,STARLINK-5421,PAYLOAD,2024-01-26 21:16:11,15.08845649,0.0001467,53.2166,248.3332,87.2256,272.8904,0.00016639,2.362e-05,0.0,0 STARLINK-5421,1 54799U 22175AT  24026.88624519  .00002362  00000-0  16639-3 0  9999,2 54799  53.2166 248.3332 0001467  87.2256 272.8904 15.08845649 61449,6917.863,95.437,540.743,538.713,0.0
54799.0,STARLINK-5421,PAYLOAD,2024-01-27 19:31:35,15.0884197,0.0001458,53.2171,244.1642,94.5369,265.579,7.7764e-05,9.5e-06,0.0,0 STARLINK-5421,1 54799U 22175AT  24027.81360916  .00000950  00000-0  77764-4 0  9999,2 54799  53.2171 244.1642 0001458  94.5369 265.5790 15.08841970 61589,6917.874,95.437,540.748,538.731,0.0
54799.0,STARLINK-5421,PAYLOAD,2024-01-27 21:06:59,15.08839714,0.0001421,53.217,243.8686,90.745,269.3705,5.2251e-05,5.44e-06,0.0,0 STARLINK-5421,1 54799U 22175AT  24027.87985028  .00000544  00000-0  52251-4 0  9995,2 54799  53.2170 243.8686 0001421  90.7450 269.3705 15.08839714 63753,6917.881,95.438,540.729,538.763,0.0
54799.0,STARLINK-5421,PAYLOAD,2024-01-28 00:17:45,15.08839307,0.0001458,53.2171,243.2773,96.079,264.0368,4.6862e-05,4.58e-06,0.0,0 STARLINK-5421,1 54799U 22175AT  24028.01233062  .00000458  00000-0  46862-4 0  9991,2 54799  53.2171 243.2773 0001458  96.0790 264.0368 15.08839307 63778,6917.883,95.438,540.756,538.739,0.0
54799.0,STARLINK-5421,PAYLOAD,2024-01-28 19:22:23,15.08838094,0.0001495,53.2172,239.7083,103.3167,256.7992,1.4591e-05,-5.6e-07,0.0,0 STARLINK-5421,1 54799U 22175AT  24028.80721255 -.00000056  00000-0  14591-4 0  9993,2 54799  53.2172 239.7083 0001495 103.3167 256.7992 15.08838094 61731,6917.886,95.438,540.785,538.717,0.0
54799.0,STARLINK-5421,PAYLOAD,2024-01-28 20:57:46,15.08838106,0.0001472,53.2171,239.4109,101.1526,258.9632,1.1069e-05,-1.12e-06,0.0,0 STARLINK-5421,1 54799U 22175AT  24028.87345256 -.00000112  00000-0  11069-4 0  9993,2 54799  53.2171 239.4109 0001472 101.1526 258.9632 15.08838106 63906,6917.886,95.438,540.769,538.733,0.0
54799.0,STARLINK-5421,PAYLOAD,2024-01-29 22:23:56,15.08836787,0.0001384,53.2166,234.6529,96.4519,263.6631,7.5819e-05,9.19e-06,0.0,0 STARLINK-5421,1 54799U 22175AT  24029.93329376  .00000919  00000-0  75819-4 0  9993,2 54799  53.2166 234.6529 0001384  96.4519 263.6631 15.08836787 64066,6917.89,95.438,540.713,538.798,0.0
54799.0,STARLINK-5421,PAYLOAD,2024-01-29 23:59:19,15.08836627,0.000139,53.2167,234.3565,90.0987,270.0165,6.8815e-05,8.07e-06,0.0,0 STARLINK-5421,1 54799U 22175AT  24029.99953466  .00000807  00000-0  68815-4 0  9996,2 54799  53.2167 234.3565 0001390  90.0987 270.0165 15.08836627 61918,6917.891,95.438,540.717,538.794,0.0
54799.0,STARLINK-5421,PAYLOAD,2024-01-30 20:39:20,15.08842203,0.0001265,53.2159,230.4915,90.9486,269.1652,9.0293e-05,1.15e-05,0.0,0 STARLINK-5421,1 54799U 22175AT  24030.86065126  .00001150  00000-0  90293-4 0  9998,2 54799  53.2159 230.4915 0001265  90.9486 269.1652 15.08842203 64201,6917.874,95.437,540.614,538.864,0.0
54799.0,STARLINK-5421,PAYLOAD,2024-01-31 12:33:11,15.08841135,0.0001387,53.2159,227.5181,77.727,282.3877,5.2341e-05,5.45e-06,0.0,0 STARLINK-5421,1 54799U 22175AT  24031.52305465  .00000545  00000-0  52341-4 0  9994,2 54799  53.2159 227.5181 0001387  77.7270 282.3877 15.08841135 62142,6917.877,95.437,540.701,538.782,0.0
54799.0,STARLINK-5421,PAYLOAD,2024-02-01 21:56:17,15.08843462,0.0001502,53.2162,221.2747,72.1584,287.9572,5.8282e-05,6.4e-06,0.0,0 STARLINK-5421,1 54799U 22175AT  24032.91409152  .00000640  00000-0  58282-4 0  9992,2 54799  53.2162 221.2747 0001502  72.1584 287.9572 15.08843462 64512,6917.87,95.437,540.774,538.696,0.0
54799.0,STARLINK-5421,PAYLOAD,2024-02-02 12:14:45,15.08840862,0.0001422,53.2164,218.5965,86.0779,274.0375,4.0694e-05,3.6e-06,0.0,0 STARLINK-5421,1 54799U 22175AT  24033.51025258  .00000360  00000-0  40694-4 0  9997,2 54799  53.2164 218.5965 0001422  86.0779 274.0375 15.08840862 64605,6917.878,95.438,540.726,538.759,0.0
54799.0,STARLINK-5421,PAYLOAD,2024-02-02 18:36:18,15.08842448,0.0001519,53.2171,217.4076,100.0379,260.0785,4.6684e-05,4.55e-06,0.0,0 STARLINK-5421,1 54799U 22175AT  24033.77521019  .00000455  00000-0  46684-4 0  9991,2 54799  53.2171 217.4076 0001519 100.0379 260.0785 15.08842448 64640,6917.873,95.437,540.789,538.687,0.0
54799.0,STARLINK-5421,PAYLOAD,2024-02-03 12:05:32,15.08839349,0.0001469,53.2166,214.1374,92.5999,267.5161,4.4409e-05,4.19e-06,0.0,0 STARLINK-5421,1 54799U 22175AT  24034.50385224  .00000419  00000-0  44409-4 0  9992,2 54799  53.2166 214.1374 0001469  92.5999 267.5161 15.08839349 62594,6917.882,95.438,540.764,538.731,0.0
54799.0,STARLINK-5421,PAYLOAD,2024-02-03 18:27:05,15.08839276,0.0001374,53.2164,212.9475,103.399,256.7156,4.3273e-05,4.01e-06,0.0,0 STARLINK-5421,1 54799U 22175AT  24034.76881158  .00000401  00000-0  43273-4 0  9996,2 54799  53.2164 212.9475 0001374 103.3990 256.7156 15.08839276 64794,6917.883,95.438,540.698,538.797,0.0
54799.0,STARLINK-5421,PAYLOAD,2024-02-04 18:17:52,15.08839236,0.0001365,53.2167,208.4871,106.2697,253.8445,4.1411e-05,3.71e-06,0.0,0 STARLINK-5421,1 54799U 22175AT  24035.76241242  .00000371  00000-0  41411-4 0  9999,2 54799  53.2167 208.4871 0001365 106.2697 253.8445 15.08839236 62785,6917.883,95.438,540.692,538.803,0.0
54799.0,STARLINK-5421,PAYLOAD,2024-02-05 14:57:53,15.08837783,0.0001305,53.2169,204.6212,101.8372,258.2767,4.2197e-05,3.84e-06,0.0,0 STARLINK-5421,1 54799U 22175AT  24036.62353515  .00000384  00000-0  42197-4 0  9998,2 54799  53.2169 204.6212 0001305 101.8372 258.2767 15.08837783 65075,6917.887,95.438,540.655,538.849,0.0
54799.0,STARLINK-5421,PAYLOAD,2024-02-05 18:08:39,15.08839008,0.0001314,53.2171,204.0267,101.3794,258.7346,5.0984e-05,5.24e-06,0.0,0 STARLINK-5421,1 54799U 22175AT  24036.75601428  .00000524  00000-0  50984-4 0  9990,2 54799  53.2171 204.0267 0001314 101.3794 258.7346 15.08839008 65097,6917.883,95.438,540.657,538.839,0.0
54799.0,STARLINK-5421,PAYLOAD,2024-02-06 10:02:31,15.08838355,0.0001336,53.2174,201.0535,102.3093,257.8049,6.6349e-05,7.68e-06,0.0,0 STARLINK-5421,1 54799U 22175AT  24037.41841514  .00000768  00000-0  66349-4 0  9998,2 54799  53.2174 201.0535 0001336 102.3093 257.8049 15.08838355 63038,6917.885,95.438,540.675,538.826,0.0
54799.0,STARLINK-5421,PAYLOAD,2024-02-06 17:59:26,15.08839481,0.0001357,53.2175,199.5661,103.5426,256.5717,7.2448e-05,8.65e-06,0.0,0 STARLINK-5421,1 54799U 22175AT  24037.74961470  .00000865  00000-0  72448-4 0  9993,2 54799  53.2175 199.5661 0001357 103.5426 256.5717 15.08839481 65240,6917.882,95.438,540.686,538.808,0.0
54799.0,STARLINK-5421,PAYLOAD,2024-02-07 14:39:27,15.0883688,0.0001351,53.2177,195.7004,103.6766,256.4376,2.5649e-05,1.2e-06,0.0,0 STARLINK-5421,1 54799U 22175AT  24038.61073991  .00000120  00000-0  25649-4 0  9997,2 54799  53.2177 195.7004 0001351 103.6766 256.4376 15.08836880 65377,6917.89,95.438,540.69,538.82,0.0
54799.0,STARLINK-5421,PAYLOAD,2024-02-07 17:50:14,15.08838918,0.0001287,53.2171,195.1054,98.1063,262.0075,4.0436e-05,3.56e-06,0.0,0 STARLINK-5421,1 54799U 22175AT  24038.74321844  .00000356  00000-0  40436-4 0  9996,2 54799  53.2171 195.1054 0001287  98.1063 262.0075 15.08838918 63232,6917.884,95.438,540.639,538.858,0.0
54799.0,STARLINK-5421,PAYLOAD,2024-02-08 14:30:15,15.08837446,0.0001375,53.2174,191.2395,82.4749,277.6399,2.7388e-05,1.48e-06,0.0,0 STARLINK-5421,1 54799U 22175AT  24039.60434266  .00000148  00000-0  27388-4 0  9995,2 54799  53.2174 191.2395 0001375  82.4749 277.6399 15.08837446 65525,6917.888,95.438,540.704,538.802,0.0
